{"type":"FeatureCollection","features":[{"type":"Feature","properties":{},"geometry":{"type":"LineString","coordinates":[[9.62119,41.00488],[9.61533,41.01729],[9.57568,41.03052],[9.53877,41.05366],[9.50020,41.10635],[9.45518,41.15015],[9.35078,41.19590],[9.28301,41.20166],[9.22842,41.25708],[9.18213,41.24219],[9.16309,41.18516],[9.10723,41.14292],[8.99814,41.11035]]}},{"type":"Feature","properties":{},"geometry":{"type":"LineString","coordinates":[[8.64160,42.11821],[8.70098,42.09561],[8.70254,42.04312],[8.65342,41.99556],[8.61514,41.95913],[8.62188,41.93071],[8.67363,41.92236],[8.74043,41.92515],[8.75869,41.87041],[8.71865,41.80400],[8.71797,41.76143],[8.77100,41.73711],[8.88682,41.70068],[8.87900,41.66855],[8.82979,41.62769],[8.80752,41.58838],[8.84209,41.55889],[8.89502,41.51616],[9.00303,41.47656],[9.18613,41.38491],[9.25342,41.46006],[9.33086,41.62715],[9.37422,41.67881],[9.39482,41.73120],[9.40088,41.92622],[9.42842,41.97241],[9.55068,42.12974],[9.55645,42.16094],[9.52617,42.55264],[9.50938,42.58560],[9.47324,42.61558],[9.45420,42.65859],[9.48037,42.80542],[9.47861,42.86050],[9.46084,42.94521],[9.46328,42.98101],[9.41523,43.02148],[9.36318,43.01738],[9.33096,42.94380],[9.32305,42.81406],[9.33838,42.76689],[9.31338,42.71318],[9.28770,42.69463],[9.25352,42.71245],[9.19805,42.72920],[9.13789,42.73291],[9.08838,42.70498],[9.04365,42.66167],[8.99492,42.64531],[8.81484,42.60791],[8.71309,42.54976],[8.64004,42.42656],[8.58750,42.38530],[8.56563,42.35771],[8.59238,42.34473],[8.62588,42.34341],[8.67549,42.28403],[8.60791,42.25845],[8.56621,42.21880],[8.58779,42.16084],[8.64160,42.11821]]}},{"type":"Feature","properties":{},"geometry":{"type":"LineString","coordinates":[[0.42451,51.46563],[0.52832,51.48447],[0.60029,51.46797],[0.64551,51.40469],[0.68652,51.38657],[0.88936,51.35952],[1.01494,51.35972],[1.25713,51.37510],[1.37344,51.37471],[1.41494,51.36328],[1.41563,51.31084],[1.39756,51.18203],[1.36553,51.15547],[1.04443,51.04727],[0.97861,50.97168],[0.96016,50.92588],[0.77236,50.93398],[0.68438,50.88555],[0.53232,50.85342],[0.41475,50.81919],[0.29971,50.77598],[0.20508,50.76304],[-0.20391,50.81436],[-0.45078,50.81016],[-0.78525,50.76543],[-0.87139,50.77280],[-1.00059,50.81563],[-1.13286,50.84458],[-1.28506,50.85732],[-1.41646,50.89688],[-1.33447,50.82080],[-1.51675,50.74746],[-1.60083,50.73286],[-1.68789,50.73516],[-1.86602,50.71523],[-2.03105,50.72539],[-2.00625,50.67324],[-1.96206,50.62778],[-1.99790,50.60801],[-2.03584,50.60308],[-2.35015,50.63740],[-2.39468,50.63091],[-2.43345,50.59922],[-2.54775,50.61631],[-2.65884,50.66973],[-2.77695,50.70557],[-2.90088,50.72241],[-2.99941,50.71660],[-3.40459,50.63242],[-3.48545,50.54795],[-3.52588,50.42817],[-3.58437,50.32183],[-3.67979,50.23994],[-3.79336,50.22925],[-3.90020,50.28594],[-4.10342,50.34854],[-4.17256,50.39082],[-4.19458,50.39331],[-4.21729,50.37817],[-4.29697,50.35908],[-4.37949,50.35820],[-4.50669,50.34136],[-4.72798,50.29048],[-4.81738,50.25596],[-5.00952,50.16074],[-5.04863,50.13438],[-5.11851,50.03833],[-5.22524,50.02139],[-5.32285,50.08296],[-5.43398,50.10444],[-5.55122,50.08340],[-5.62212,50.05068],[-5.65518,50.07725],[-5.65625,50.13188],[-5.57065,50.19697],[-5.34229,50.24614],[-5.14180,50.37373],[-5.04346,50.45151],[-5.00444,50.49526],[-4.95640,50.52314],[-4.89355,50.53369],[-4.86128,50.58203],[-4.58291,50.77637],[-4.55996,50.82095],[-4.54609,50.90068],[-4.52310,50.97744],[-4.29648,51.02715],[-4.18818,51.18853],[-4.15840,51.20132],[-3.84233,51.23091],[-3.60791,51.22856],[-3.37510,51.19697],[-3.25576,51.19414],[-3.13599,51.20503],[-3.04204,51.24858],[-2.88125,51.40566],[-2.79082,51.47480]]}},{"type":"Feature","properties":{},"geometry":{"type":"LineString","coordinates":[[-3.08037,51.49580],[-3.25879,51.39849],[-3.29312,51.39043],[-3.56235,51.41382]]}},{"type":"Feature","properties":{},"geometry":{"type":"LineString","coordinates":[[-2.64614,49.46821],[-2.63901,49.45093],[-2.54736,49.42871],[-2.51230,49.49453],[-2.52090,49.50630],[-2.54219,49.50659],[-2.64614,49.46821]]}},{"type":"Feature","properties":{},"geometry":{"type":"LineString","coordinates":[[-2.22051,49.26636],[-2.23584,49.17637],[-2.16567,49.18740],[-2.09102,49.18740],[-2.05376,49.16982],[-2.00991,49.18081],[-2.01865,49.23125],[-2.08223,49.25537],[-2.22051,49.26636]]}},{"type":"Feature","properties":{},"geometry":{"type":"LineString","coordinates":[[-1.38867,46.05039],[-1.38887,46.03296],[-1.36870,45.96768],[-1.28027,45.89712],[-1.21357,45.81660],[-1.17832,45.90405],[-1.28506,46.00269],[-1.38867,46.05039]]}},{"type":"Feature","properties":{},"geometry":{"type":"LineString","coordinates":[[-1.31279,50.77349],[-1.38584,50.73354],[-1.51567,50.70332],[-1.56343,50.66611],[-1.51533,50.66978],[-1.30630,50.58853],[-1.25146,50.58882],[-1.19609,50.59922],[-1.17583,50.61523],[-1.14937,50.65571],[-1.06558,50.69023],[-1.14424,50.73472],[-1.31279,50.77349]]}},{"type":"Feature","properties":{},"geometry":{"type":"LineString","coordinates":[[8.34375,41.10161],[8.32021,41.12188],[8.26738,41.09912],[8.22402,41.03130]]}},{"type":"Feature","properties":{},"geometry":{"type":"LineString","coordinates":[[8.28604,41.03984],[8.31895,41.06274],[8.34375,41.10161]]}},{"type":"Feature","properties":{},"geometry":{"type":"LineString","coordinates":[[4.27412,51.47163],[4.20576,51.45669],[4.14131,51.45576]]}},{"type":"Feature","properties":{},"geometry":{"type":"LineString","coordinates":[[3.52051,51.48618],[3.58691,51.45391],[3.69355,51.44990],[3.82188,51.40938],[4.00654,51.44321],[4.13887,51.40151],[4.22617,51.38647],[4.11152,51.36064],[4.01104,51.39595],[3.88340,51.35449],[3.71650,51.36914],[3.58945,51.39941],[3.42578,51.39351],[3.35010,51.37769],[3.22520,51.35161],[2.96016,51.26543],[2.52490,51.09712],[2.44570,51.06650],[1.91250,50.99063],[1.76768,50.93569],[1.67227,50.88501],[1.60957,50.81948],[1.57949,50.73926],[1.55156,50.29395],[1.59277,50.25220],[1.54844,50.23071],[1.51406,50.20508],[1.40723,50.08853],[1.24551,49.99824],[0.92412,49.91021],[0.61621,49.86294],[0.18672,49.70303],[0.12656,49.60156],[0.10938,49.55752],[0.12939,49.50845],[0.27764,49.46328],[0.43926,49.47319],[0.41689,49.44839],[0.13613,49.40151],[-0.01118,49.33022],[-0.16348,49.29678],[-0.52090,49.35454],[-0.76553,49.35972],[-0.95913,49.39316],[-1.13853,49.38789],[-1.19497,49.44482],[-1.23228,49.49487],[-1.26494,49.59824],[-1.25864,49.68018],[-1.36572,49.70728],[-1.58823,49.66768],[-1.70513,49.68096],[-1.85645,49.68379],[-1.87539,49.63140],[-1.87007,49.59512],[-1.81343,49.49014],[-1.69033,49.31318],[-1.58311,49.20239],[-1.56548,48.80552],[-1.48047,48.69761],[-1.37646,48.65259],[-1.43765,48.64141],[-1.82471,48.63052],[-1.85195,48.66885],[-1.90571,48.69712],[-1.97314,48.63511],[-2.00371,48.58208],[-2.07944,48.64502],[-2.44619,48.64829],[-2.69233,48.53682],[-2.79287,48.60107],[-3.00322,48.79067],[-3.23145,48.84082],[-3.47148,48.81294],[-3.54600,48.76567],[-3.71479,48.71050],[-3.85566,48.69473],[-4.05889,48.70752],[-4.53120,48.61997],[-4.72075,48.53989],[-4.76250,48.45024],[-4.74854,48.41001],[-4.71938,48.36313],[-4.58472,48.35752],[-4.52480,48.37231],[-4.39316,48.36763],[-4.36440,48.35674],[-4.30176,48.34707],[-4.24141,48.30366],[-4.40332,48.29307],[-4.49790,48.29927],[-4.53066,48.30972],[-4.57715,48.29004],[-4.54434,48.24697],[-4.51221,48.22974],[-4.43462,48.21797],[-4.32944,48.16997],[-4.37783,48.12881],[-4.51240,48.09673],[-4.62920,48.08579],[-4.67881,48.03950],[-4.42798,47.96895],[-4.37510,47.87744],[-4.31211,47.82290],[-4.22642,47.80962],[-4.07070,47.84785],[-3.90093,47.83755],[-3.50781,47.75313],[-3.44395,47.71104],[-3.39590,47.72041],[-3.32861,47.71333],[-3.26470,47.68511],[-3.22158,47.69414],[-3.15884,47.69468],[-3.06421,47.62134],[-2.96406,47.60107],[-2.85938,47.61445],[-2.78721,47.62554],[-2.73311,47.60181],[-2.79678,47.53726],[-2.77031,47.51387],[-2.66592,47.52617],[-2.55405,47.52705],[-2.48271,47.51162],[-2.42769,47.47090],[-2.47632,47.41294],[-2.53003,47.38159],[-2.50312,47.31206],[-2.43442,47.29097],[-2.35303,47.27876],[-1.97539,47.31069],[-1.74253,47.21597],[-1.82129,47.22534],[-1.92173,47.26064],[-2.02759,47.27358],[-2.10830,47.26294],[-2.14858,47.22393],[-2.19707,47.16294],[-2.14355,47.12632],[-2.08193,47.11162],[-2.01890,47.03765],[-2.09028,46.92051],[-2.09248,46.86504],[-2.05937,46.81030],[-1.92144,46.68481],[-1.78652,46.51484],[-1.39248,46.35010],[-1.31279,46.32690],[-1.23882,46.32451],[-1.14629,46.31138],[-1.13203,46.25269],[-1.13638,46.20483],[-1.10439,45.92534],[-1.06602,45.80566],[-1.04150,45.77266],[-1.03174,45.74106],[-1.11436,45.76851],[-1.20996,45.77090],[-1.19600,45.71445],[-1.16997,45.68594],[-0.88066,45.53818],[-0.79077,45.46802],[-0.73311,45.38462],[-0.64111,45.09019],[-0.58228,45.05137],[-0.54849,45.00059],[-0.63398,45.04712],[-0.69111,45.09346],[-0.76665,45.31436],[-0.82632,45.38066],[-0.94175,45.45708],[-1.08101,45.53242],[-1.14907,45.34263],[-1.18906,45.16147],[-1.24521,44.66670],[-1.22031,44.68662],[-1.20039,44.72646],[-1.15288,44.76401],[-1.07695,44.68984],[-1.17080,44.66182],[-1.24551,44.55986],[-1.34600,44.02021],[-1.48486,43.56377],[-1.63145,43.43804],[-1.79404,43.40732],[-1.82852,43.40083],[-1.99131,43.34507],[-2.19668,43.32192],[-2.33711,43.32803],[-2.60708,43.41274],[-2.87505,43.45444],[-2.94771,43.43970],[-3.04561,43.37158],[-3.41787,43.45171],[-3.52363,43.51104],[-3.60464,43.51948],[-3.77402,43.47788],[-3.88936,43.49941],[-4.01533,43.46309],[-4.31279,43.41475],[-4.52305,43.41572],[-5.10527,43.50186],[-5.31572,43.55317],[-5.66582,43.58247],[-5.84668,43.64507]]}},{"type":"Feature","properties":{},"geometry":{"type":"LineString","coordinates":[[1.03291,41.06206],[1.20586,41.09756],[1.56660,41.19561],[2.08262,41.28740],[2.14561,41.32075],[2.31094,41.46650],[3.00488,41.76743],[3.14688,41.86104],[3.24805,41.94424],[3.23809,42.08223],[3.22461,42.11113],[3.17520,42.13599],[3.15039,42.16245],[3.16641,42.25649],[3.21865,42.26035],[3.30674,42.28896],[3.28789,42.34370],[3.23984,42.36787],[3.21143,42.43115],[3.19785,42.46118],[3.09092,42.59087],[3.04307,42.83789],[3.05176,42.91514],[3.16289,43.08076],[3.25889,43.19321],[3.78477,43.46162],[3.86162,43.51636],[3.91084,43.56309],[4.05264,43.59307],[4.07510,43.58184],[4.11309,43.56304],[4.16279,43.50366],[4.22422,43.47964],[4.37617,43.45640],[4.40977,43.44722],[4.62871,43.38711],[4.71211,43.37329],[4.78906,43.37891],[4.78721,43.40142],[4.80791,43.40522],[4.84355,43.39395],[4.87373,43.41162],[4.91191,43.42695],[4.97598,43.42695],[5.05977,43.44453],[5.06084,43.40630],[5.07314,43.36660],[5.12041,43.34897],[5.19951,43.35249],[5.32021,43.34492],[5.40654,43.22852],[5.67158,43.17783],[5.80947,43.09790],[6.03057,43.10098],[6.11592,43.07236],[6.30537,43.13872],[6.49404,43.16929],[6.57021,43.19907],[6.65723,43.26167],[6.68740,43.33457],[6.71660,43.37358],[6.86475,43.43833],[7.18145,43.65913],[7.26152,43.69609],[7.37773,43.73174],[7.43867,43.75044],[7.49316,43.76714],[7.73330,43.80259],[8.00498,43.87676],[8.08164,43.91895],[8.29238,44.13652],[8.55195,44.34614],[8.76582,44.42231],[8.93037,44.40776],[9.19600,44.32300],[9.28936,44.31924],[9.73086,44.10117]]}}]}